[{"OBJECT_NAME":"HYDROGNSS-2","OBJECT_ID":"2025-276DB","EPOCH":"2026-03-09T23:16:13.603296","MEAN_MOTION":15.17394407,"ECCENTRICITY":0.00029502,"INCLINATION":97.4274,"RA_OF_ASC_NODE":144.1742,"ARG_OF_PERICENTER":240.4199,"MEAN_ANOMALY":119.6741,"EPHEMERIS_TYPE":0,"CLASSIFICATION_TYPE":"U","NORAD_CAT_ID":66763,"ELEMENT_SET_NO":999,"REV_AT_EPOCH":1535,"BSTAR":0.00027739627,"MEAN_MOTION_DOT":5.478e-5,"MEAN_MOTION_DDOT":0},{"OBJECT_NAME":"CZ-4C DEB","OBJECT_ID":"2018-031H","EPOCH":"2026-03-09T10:10:58.582560","MEAN_MOTION":15.14033759,"ECCENTRICITY":0.00199639,"INCLINATION":98.1663,"RA_OF_ASC_NODE":242.9335,"ARG_OF_PERICENTER":272.748,"MEAN_ANOMALY":87.1465,"EPHEMERIS_TYPE":0,"CLASSIFICATION_TYPE":"U","NORAD_CAT_ID":43266,"ELEMENT_SET_NO":999,"REV_AT_EPOCH":43166,"BSTAR":0.00079064643,"MEAN_MOTION_DOT":0.00014379,"MEAN_MOTION_DDOT":0}]
